start=new Date('2021-12-27T00:00:00.000Z').valueOf();
sats=[{"COUNTRY_CODE":"US","TIME_SYSTEM":"UTC","MEAN_ELEMENT_THEORY":"SGP4","TLE_LINE1":"1 47746U 21017AA  21360.92985656  .00001366  00000-0  11061-3 0  9999","FILE":"3251846","CLASSIFICATION_TYPE":"U","EPHEMERIS_TYPE":"0","EPOCH":"2021-12-26T22:18:59.606784","ELEMENT_SET_NO":"999","REV_AT_EPOCH":"4654","RCS_SIZE":"LARGE","INCLINATION":"53.0550","MEAN_MOTION_DDOT":"0.0000000000000","SITE":"AFETR","APOAPSIS":"548.647","MEAN_ANOMALY":"300.3886","LAUNCH_DATE":"2021-03-04","PERIOD":"95.593","DECAY_DATE":null,"ARG_OF_PERICENTER":"59.7301","OBJECT_ID":"2021-017AA","ECCENTRICITY":"0.00020000","NORAD_CAT_ID":"47746","GP_ID":"192524368","RA_OF_ASC_NODE":"256.9244","SEMIMAJOR_AXIS":"6925.397","OBJECT_TYPE":"PAYLOAD","MEAN_MOTION_DOT":"0.00001366","TLE_LINE2":"2 47746  53.0550 256.9244 0002000  59.7301 300.3886 15.06384129 46543","MEAN_MOTION":"15.06384129","OBJECT_NAME":"STARLINK-2160","PERIAPSIS":"545.877","BSTAR":"0.00011061000000","CENTER_NAME":"EARTH","REF_FRAME":"TEME"},{"LAUNCH_DATE":"2021-03-04","PERIOD":"95.593","DECAY_DATE":null,"ARG_OF_PERICENTER":"65.8027","OBJECT_ID":"2021-017AB","ECCENTRICITY":"0.00021160","COUNTRY_CODE":"US","TIME_SYSTEM":"UTC","CLASSIFICATION_TYPE":"U","TLE_LINE1":"1 47747U 21017AB  21360.92709771 -.00000657  00000-0 -25176-4 0  9999","FILE":"3251846","MEAN_ELEMENT_THEORY":"SGP4","EPHEMERIS_TYPE":"0","EPOCH":"2021-12-26T22:15:01.242144","ELEMENT_SET_NO":"999","REV_AT_EPOCH":"4672","INCLINATION":"53.0548","RCS_SIZE":"LARGE","MEAN_MOTION_DDOT":"0.0000000000000","SITE":"AFETR","APOAPSIS":"548.714","MEAN_ANOMALY":"294.3183","OBJECT_NAME":"STARLINK-2161","MEAN_MOTION":"15.06388425","PERIAPSIS":"545.784","BSTAR":"-0.00002517600000","CENTER_NAME":"EARTH","REF_FRAME":"TEME","NORAD_CAT_ID":"47747","GP_ID":"192525620","RA_OF_ASC_NODE":"246.9564","SEMIMAJOR_AXIS":"6925.384","OBJECT_TYPE":"PAYLOAD","MEAN_MOTION_DOT":"-0.00000657","TLE_LINE2":"2 47747  53.0548 246.9564 0002116  65.8027 294.3183 15.06388425 46721"},{"APOAPSIS":"548.544","SITE":"AFETR","MEAN_ANOMALY":"288.3022","MEAN_MOTION_DDOT":"0.0000000000000","INCLINATION":"53.0543","RCS_SIZE":"LARGE","ELEMENT_SET_NO":"999","EPOCH":"2021-12-26T22:04:23.768256","EPHEMERIS_TYPE":"0","REV_AT_EPOCH":"4669","COUNTRY_CODE":"US","TLE_LINE1":"1 47748U 21017AC  21360.91971954 -.00001035  00000-0 -50579-4 0  9999","FILE":"3251846","MEAN_ELEMENT_THEORY":"SGP4","CLASSIFICATION_TYPE":"U","TIME_SYSTEM":"UTC","ECCENTRICITY":"0.00018920","OBJECT_ID":"2021-017AC","ARG_OF_PERICENTER":"71.8173","DECAY_DATE":null,"PERIOD":"95.593","LAUNCH_DATE":"2021-03-04","MEAN_MOTION_DOT":"-0.00001035","OBJECT_TYPE":"PAYLOAD","TLE_LINE2":"2 47748  53.0543 246.9915 0001892  71.8173 288.3022 15.06393307 46692","SEMIMAJOR_AXIS":"6925.369","GP_ID":"192525368","RA_OF_ASC_NODE":"246.9915","NORAD_CAT_ID":"47748","REF_FRAME":"TEME","BSTAR":"-0.00005057900000","CENTER_NAME":"EARTH","OBJECT_NAME":"STARLINK-2162","MEAN_MOTION":"15.06393307","PERIAPSIS":"545.924"},{"NORAD_CAT_ID":"47749","GP_ID":"192524118","RA_OF_ASC_NODE":"246.9061","SEMIMAJOR_AXIS":"6925.369","OBJECT_TYPE":"PAYLOAD","MEAN_MOTION_DOT":"0.00001082","TLE_LINE2":"2 47749  53.0542 246.9061 0001813  68.2437 291.8745 15.06393395 46698","MEAN_MOTION":"15.06393395","OBJECT_NAME":"STARLINK-2163","PERIAPSIS":"545.978","CENTER_NAME":"EARTH","BSTAR":"0.00009156300000","REF_FRAME":"TEME","COUNTRY_CODE":"US","TIME_SYSTEM":"UTC","CLASSIFICATION_TYPE":"U","TLE_LINE1":"1 47749U 21017AD  21360.93446744  .00001082  00000-0  91563-4 0  9994","FILE":"3251846","MEAN_ELEMENT_THEORY":"SGP4","EPOCH":"2021-12-26T22:25:37.986816","EPHEMERIS_TYPE":"0","ELEMENT_SET_NO":"999","REV_AT_EPOCH":"4669","RCS_SIZE":"LARGE","INCLINATION":"53.0542","MEAN_MOTION_DDOT":"0.0000000000000","SITE":"AFETR","APOAPSIS":"548.489","MEAN_ANOMALY":"291.8745","LAUNCH_DATE":"2021-03-04","PERIOD":"95.593","DECAY_DATE":null,"ARG_OF_PERICENTER":"68.2437","OBJECT_ID":"2021-017AD","ECCENTRICITY":"0.00018130"},{"ARG_OF_PERICENTER":"69.7471","DECAY_DATE":null,"ECCENTRICITY":"0.00022020","OBJECT_ID":"2021-017AE","LAUNCH_DATE":"2021-03-04","PERIOD":"95.593","MEAN_MOTION_DDOT":"0.0000000000000","INCLINATION":"53.0572","RCS_SIZE":"LARGE","MEAN_ANOMALY":"290.3754","APOAPSIS":"548.776","SITE":"AFETR","CLASSIFICATION_TYPE":"U","TLE_LINE1":"1 47750U 21017AE  21360.91235219  .00001538  00000-0  12219-3 0  9993","FILE":"3251846","MEAN_ELEMENT_THEORY":"SGP4","TIME_SYSTEM":"UTC","COUNTRY_CODE":"US","REV_AT_EPOCH":"4669","ELEMENT_SET_NO":"999","EPOCH":"2021-12-26T21:53:47.229216","EPHEMERIS_TYPE":"0","BSTAR":"0.00012219000000","CENTER_NAME":"EARTH","REF_FRAME":"TEME","PERIAPSIS":"545.726","OBJECT_NAME":"STARLINK-2164","MEAN_MOTION":"15.06387715","SEMIMAJOR_AXIS":"6925.386","TLE_LINE2":"2 47750  53.0572 247.0209 0002202  69.7471 290.3754 15.06387715 46699","MEAN_MOTION_DOT":"0.00001538","OBJECT_TYPE":"PAYLOAD","NORAD_CAT_ID":"47750","RA_OF_ASC_NODE":"247.0209","GP_ID":"192524869"},{"NORAD_CAT_ID":"47751","RA_OF_ASC_NODE":"236.8652","GP_ID":"192525120","SEMIMAJOR_AXIS":"6925.364","TLE_LINE2":"2 47751  53.0528 236.8652 0002044  62.6963 297.4233 15.06395081 46843","OBJECT_TYPE":"PAYLOAD","MEAN_MOTION_DOT":"-0.00000281","PERIAPSIS":"545.813","OBJECT_NAME":"STARLINK-2168","MEAN_MOTION":"15.06395081","BSTAR":"0.00000004438800","CENTER_NAME":"EARTH","REF_FRAME":"TEME","TIME_SYSTEM":"UTC","TLE_LINE1":"1 47751U 21017AF  21360.94276122 -.00000281  00000-0  44388-7 0  9996","FILE":"3251846","CLASSIFICATION_TYPE":"U","MEAN_ELEMENT_THEORY":"SGP4","COUNTRY_CODE":"US","REV_AT_EPOCH":"4684","EPHEMERIS_TYPE":"0","EPOCH":"2021-12-26T22:37:34.569408","ELEMENT_SET_NO":"999","RCS_SIZE":"LARGE","INCLINATION":"53.0528","MEAN_MOTION_DDOT":"0.0000000000000","MEAN_ANOMALY":"297.4233","SITE":"AFETR","APOAPSIS":"548.644","LAUNCH_DATE":"2021-03-04","PERIOD":"95.592","DECAY_DATE":null,"ARG_OF_PERICENTER":"62.6963","ECCENTRICITY":"0.00020440","OBJECT_ID":"2021-017AF"},{"SEMIMAJOR_AXIS":"6925.348","TLE_LINE2":"2 47752  53.0540 252.0371 0001965  57.5135 302.6043 15.06400142 46675","OBJECT_TYPE":"PAYLOAD","MEAN_MOTION_DOT":"0.00003433","NORAD_CAT_ID":"47752","RA_OF_ASC_NODE":"252.0371","GP_ID":"192525869","BSTAR":"0.00024926000000","CENTER_NAME":"EARTH","REF_FRAME":"TEME","PERIAPSIS":"545.852","MEAN_MOTION":"15.06400142","OBJECT_NAME":"STARLINK-2169","INCLINATION":"53.0540","RCS_SIZE":"MEDIUM","MEAN_MOTION_DDOT":"0.0000000000000","MEAN_ANOMALY":"302.6043","SITE":"AFETR","APOAPSIS":"548.574","TIME_SYSTEM":"UTC","TLE_LINE1":"1 47752U 21017AG  21360.91004764  .00003433  00000-0  24926-3 0  9998","FILE":"3251846","MEAN_ELEMENT_THEORY":"SGP4","CLASSIFICATION_TYPE":"U","COUNTRY_CODE":"US","REV_AT_EPOCH":"4667","EPOCH":"2021-12-26T21:50:28.116096","EPHEMERIS_TYPE":"0","ELEMENT_SET_NO":"999","DECAY_DATE":null,"ARG_OF_PERICENTER":"57.5135","ECCENTRICITY":"0.00019650","OBJECT_ID":"2021-017AG","LAUNCH_DATE":"2021-03-04","PERIOD":"95.592"},{"LAUNCH_DATE":"2021-03-04","PERIOD":"95.592","ARG_OF_PERICENTER":"61.4248","DECAY_DATE":null,"ECCENTRICITY":"0.00019900","OBJECT_ID":"2021-017AH","FILE":"3251846","TLE_LINE1":"1 47753U 21017AH  21360.95197414  .00001736  00000-0  13544-3 0  9996","CLASSIFICATION_TYPE":"U","MEAN_ELEMENT_THEORY":"SGP4","TIME_SYSTEM":"UTC","COUNTRY_CODE":"US","REV_AT_EPOCH":"4660","ELEMENT_SET_NO":"999","EPHEMERIS_TYPE":"0","EPOCH":"2021-12-26T22:50:50.565696","MEAN_MOTION_DDOT":"0.0000000000000","RCS_SIZE":"LARGE","INCLINATION":"53.0543","MEAN_ANOMALY":"298.6941","APOAPSIS":"548.607","SITE":"AFETR","PERIAPSIS":"545.851","MEAN_MOTION":"15.06394876","OBJECT_NAME":"STARLINK-2170","BSTAR":"0.00013544000000","CENTER_NAME":"EARTH","REF_FRAME":"TEME","NORAD_CAT_ID":"47753","RA_OF_ASC_NODE":"256.8287","GP_ID":"192524619","SEMIMAJOR_AXIS":"6925.364","TLE_LINE2":"2 47753  53.0543 256.8287 0001990  61.4248 298.6941 15.06394876 46604","MEAN_MOTION_DOT":"0.00001736","OBJECT_TYPE":"PAYLOAD"},{"OBJECT_ID":"2021-017AJ","ECCENTRICITY":"0.00020310","DECAY_DATE":null,"ARG_OF_PERICENTER":"53.3200","PERIOD":"95.592","LAUNCH_DATE":"2021-03-04","MEAN_ANOMALY":"306.7975","SITE":"AFETR","APOAPSIS":"548.616","RCS_SIZE":"LARGE","INCLINATION":"53.0548","MEAN_MOTION_DDOT":"0.0000000000000","REV_AT_EPOCH":"4656","EPHEMERIS_TYPE":"0","EPOCH":"2021-12-26T22:08:22.713504","ELEMENT_SET_NO":"999","TIME_SYSTEM":"UTC","TLE_LINE1":"1 47754U 21017AJ  21360.92248511  .00004209  00000-0  30130-3 0  9997","CLASSIFICATION_TYPE":"U","FILE":"3251846","MEAN_ELEMENT_THEORY":"SGP4","COUNTRY_CODE":"US","REF_FRAME":"TEME","CENTER_NAME":"EARTH","BSTAR":"0.00030130000000","PERIAPSIS":"545.803","MEAN_MOTION":"15.06401458","OBJECT_NAME":"STARLINK-2171","TLE_LINE2":"2 47754  53.0548 256.9693 0002031  53.3200 306.7975 15.06401458 46565","OBJECT_TYPE":"PAYLOAD","MEAN_MOTION_DOT":"0.00004209","SEMIMAJOR_AXIS":"6925.344","RA_OF_ASC_NODE":"256.9693","GP_ID":"192524369","NORAD_CAT_ID":"47754"},{"REV_AT_EPOCH":"4665","ELEMENT_SET_NO":"999","EPHEMERIS_TYPE":"0","EPOCH":"2021-12-26T22:37:21.955872","CLASSIFICATION_TYPE":"U","TLE_LINE1":"1 47755U 21017AK  21360.94261523  .00231490  00000-0  99006-2 0  9998","FILE":"3251846","MEAN_ELEMENT_THEORY":"SGP4","TIME_SYSTEM":"UTC","COUNTRY_CODE":"US","MEAN_ANOMALY":"317.9645","APOAPSIS":"503.236","SITE":"AFETR","MEAN_MOTION_DDOT":"0.0000000000000","RCS_SIZE":"LARGE","INCLINATION":"53.0502","PERIOD":"94.653","LAUNCH_DATE":"2021-03-04","OBJECT_ID":"2021-017AK","ECCENTRICITY":"0.00020920","ARG_OF_PERICENTER":"42.1511","DECAY_DATE":null,"RA_OF_ASC_NODE":"250.1349","GP_ID":"192525621","NORAD_CAT_ID":"47755","TLE_LINE2":"2 47755  53.0502 250.1349 0002092  42.1511 317.9645 15.21340874 46657","MEAN_MOTION_DOT":"0.00231490","OBJECT_TYPE":"PAYLOAD","SEMIMAJOR_AXIS":"6879.932","PERIAPSIS":"500.358","OBJECT_NAME":"STARLINK-2172","MEAN_MOTION":"15.21340874","REF_FRAME":"TEME","CENTER_NAME":"EARTH","BSTAR":"0.00990060000000"}];
